{"type": "FeatureCollection", "features": [{"geometry": {"type": "Polygon", "coordinates": [[[36.89031982400007, -1.201000570999952], [36.89159855400004, -1.20207589499995], [36.892693106000024, -1.202789732999975], [36.89324951200007, -1.204820394999956], [36.89305114700005, -1.205976247999956], [36.89221954300007, -1.210008501999937], [36.89204025300006, -1.210877656999969], [36.89188766500007, -1.211388349999936], [36.89178085300006, -1.211952924999935], [36.89169693000008, -1.212311267999951], [36.89160919200003, -1.212687611999968], [36.89145660400004, -1.213055014999952], [36.89086532600004, -1.214121341999942], [36.890399933000026, -1.214981555999941], [36.89009475700004, -1.215823888999978], [36.889770508000026, -1.216253995999978], [36.88964843800005, -1.216719865999949], [36.88965606700003, -1.217194795999944], [36.88965606700003, -1.217314854999927], [36.88965606700003, -1.217331528999978], [36.88674493800005, -1.220420245999947], [36.885833740000066, -1.22138702899997], [36.88486791200006, -1.222242128999937], [36.88393402100007, -1.223068952999938], [36.88203430200008, -1.224439382999947], [36.88147354100005, -1.224719643999947], [36.88131542100007, -1.224838011999964], [36.88106442800006, -1.225025905999928], [36.88056872100003, -1.225396991999958], [36.87997132300006, -1.22584420499993], [36.879684448000035, -1.226058959999932], [36.87932913100008, -1.226332105999973], [36.87838930200007, -1.22705458799993], [36.87739661000006, -1.227817708999965], [36.876694705000034, -1.228357289999963], [36.87554464200008, -1.229241387999934], [36.87551116900005, -1.229267119999975], [36.87528059400006, -1.229459178999946], [36.87320340500003, -1.231189393999955], [36.872749329000044, -1.231567620999954], [36.871986614000036, -1.232203561999938], [36.871959686000025, -1.232226013999934], [36.871914712000034, -1.232273284999963], [36.87109812600005, -1.233131568999966], [36.87077433600007, -1.233471893999933], [36.87017433400007, -1.234102534999977], [36.870173530000045, -1.234103379999965], [36.870166779000044, -1.234110474999966], [36.86997089300007, -1.234476536999978], [36.86969787700008, -1.234986733999961], [36.869352751000065, -1.235631688999945], [36.86923217800006, -1.235857009999961], [36.869231573000036, -1.235858143999963], [36.86898422200005, -1.236321806999968], [36.86882417500004, -1.23666276199998], [36.86878851600005, -1.236738726999931], [36.86818757300006, -1.238018939999961], [36.86795276700008, -1.238519154999949], [36.86787457300005, -1.238685733999944], [36.86780825300008, -1.238827016999949], [36.86736767200006, -1.239765601999977], [36.867286930000034, -1.239937610999959], [36.86715359300007, -1.240221663999932], [36.86706925200008, -1.240401338999959], [36.86697387700008, -1.240604519999977], [36.86691957000005, -1.240687123999976], [36.86674274200004, -1.240956093999955], [36.86657799900007, -1.241206680999937], [36.86632668900006, -1.241588943999943], [36.86622850800006, -1.24173828499994], [36.866169436000064, -1.24182813799996], [36.866165161000026, -1.241834640999969], [36.86613151600005, -1.241870563999953], [36.86602770700006, -1.241981401999965], [36.86601305900007, -1.24199704199998], [36.86596240500006, -1.242051124999932], [36.86595916700003, -1.24205458199998], [36.86485111400003, -1.243233862999944], [36.86460800200007, -1.243492602999936], [36.864219666000054, -1.243905901999938], [36.86398534700004, -1.244165707999969], [36.862983814000074, -1.245276177999926], [36.86205935300006, -1.246301193999955], [36.86168077200006, -1.246720953999954], [36.86150412400008, -1.246916815999953], [36.86124541000004, -1.247203670999966], [36.86028376300004, -1.248269916999959], [36.859755336000035, -1.248855821999939], [36.859577057000024, -1.249053492999963], [36.858870197000044, -1.24983723899993], [36.85850158300008, -1.250245946999939], [36.857808559000034, -1.25101435199997], [36.857505798000034, -1.251350044999924], [36.85743313000006, -1.251422316999935], [36.85730007500007, -1.251554646999978], [36.856629791000046, -1.252221276999933], [36.856445278000024, -1.252404784999953], [36.85612217100004, -1.252726130999974], [36.85605800400003, -1.252789947999929], [36.854992321000054, -1.25384982199995], [36.85496902500006, -1.25387299099998], [36.854965933000074, -1.253875086999926], [36.85489065200005, -1.253926136999951], [36.85373883900007, -1.254707196999959], [36.85269546500007, -1.255414723999934], [36.85255939700005, -1.25546410499993], [36.85242845300007, -1.255511626999976], [36.85212326000004, -1.25562238699996], [36.85201339200006, -1.255662242999961], [36.85174850200008, -1.25575833399995], [36.851665497000056, -1.255788444999951], [36.85054397600004, -1.256053208999958], [36.85040283200004, -1.256091832999971], [36.85000517800006, -1.256099100999961], [36.849943790000054, -1.256100222999976], [36.84816007400008, -1.256132823999963], [36.84708638300003, -1.256152447999966], [36.84650308400006, -1.256163108999942], [36.846491194000066, -1.256163325999978], [36.84646987900004, -1.256163715999946], [36.84636623800003, -1.256208522999941], [36.846178414000065, -1.256289723999942], [36.846103525000046, -1.256322099999977], [36.84592256600007, -1.256400333999977], [36.84587097200006, -1.256422638999936], [36.845449648000056, -1.25663401099996], [36.845352786000035, -1.25668260499998], [36.844819388000076, -1.256950202999974], [36.84297180200008, -1.257877110999971], [36.84205886900003, -1.258294349999972], [36.84205627400007, -1.258295535999935], [36.84204076700007, -1.258299919999956], [36.84189224200003, -1.258341907999977], [36.84189128200006, -1.258337566999956], [36.841867114000024, -1.258228322999969], [36.841827393000074, -1.258048772999928], [36.841819384000075, -1.258022568999934], [36.841769225000064, -1.257858454999962], [36.841731450000054, -1.257734857999935], [36.84171588800007, -1.257683940999925], [36.84171295200008, -1.25767433599998], [36.841857910000044, -1.256827592999969], [36.84225629500003, -1.255248605999952], [36.84244537400008, -1.254499196999973], [36.84253066100007, -1.254312376999963], [36.84257838700006, -1.254207833999942], [36.843157881000025, -1.252938456999971], [36.843527366000046, -1.252129102999959], [36.844599103000064, -1.249781472999928], [36.84467070300008, -1.249624633999929], [36.844672983000066, -1.249619631999963], [36.84467308500007, -1.249619414999927], [36.84470170600008, -1.249556720999976], [36.84475708000008, -1.249435424999945], [36.845105355000044, -1.248793403999969], [36.84555675000007, -1.247961288999932], [36.846207020000065, -1.246762563999937], [36.84624099700005, -1.246699928999931], [36.84624568500004, -1.246646566999971], [36.84626714800004, -1.246402255999954], [36.846279312000036, -1.246263799999952], [36.84628677400008, -1.246178864999934], [36.84628027300005, -1.246126642999968], [36.846279312000036, -1.246118921999937], [36.846224747000065, -1.245680596999932], [36.846221924000076, -1.245657920999975], [36.84611697300005, -1.245446109999932], [36.846012115000065, -1.245234488999927], [36.84600137900003, -1.245222105999972], [36.84558868400006, -1.244746088999932], [36.84556644500003, -1.244724490999943], [36.844951630000025, -1.244127392999928], [36.84487698000004, -1.244019371999968], [36.844814023000026, -1.243928271999948], [36.84472656200006, -1.243801712999925], [36.844503899000074, -1.243262105999975], [36.843956193000054, -1.241934784999955], [36.843685150000056, -1.241277932999935], [36.84368018300006, -1.241207264999957], [36.84363622700005, -1.240581877999944], [36.84362872500003, -1.240475143999959], [36.84361648600003, -1.240301012999964], [36.84359210200006, -1.240096699999924], [36.84330749500003, -1.23771202599994], [36.843293069000026, -1.237583506999954], [36.84325406800008, -1.237236045999964], [36.84303198200007, -1.235257487999945], [36.842936182000074, -1.23440401199997], [36.84273910500008, -1.232648252999979], [36.84252976000005, -1.231327333999957], [36.842465609000044, -1.23092255399996], [36.84240801200008, -1.230559131999939], [36.842381955000064, -1.230394715999978], [36.84230041500007, -1.229880213999934], [36.84224833800005, -1.229754818999936], [36.84215164200003, -1.229521989999967], [36.841747284000064, -1.228968381999948], [36.84160026300003, -1.228821584999935], [36.84156095000003, -1.228782330999934], [36.841180690000044, -1.228402650999954], [36.84112167400008, -1.228343724999945], [36.84094702600004, -1.228177387999949], [36.84079802600007, -1.228035478999971], [36.84078598000008, -1.228024005999941], [36.840218082000035, -1.227264559999981], [36.84021377600004, -1.227258800999948], [36.83917987700005, -1.225170728999956], [36.83914848300003, -1.225107325999943], [36.839076996000074, -1.224962949999963], [36.83867922400003, -1.224169724999968], [36.83866809400007, -1.224147528999936], [36.83859262900006, -1.223997039999972], [36.83807834900006, -1.222971475999941], [36.837665558000026, -1.222148298999969], [36.83755950800003, -1.222003326999925], [36.83730860700007, -1.22166034299994], [36.83696774600003, -1.221194382999954], [36.83683013900003, -1.221006273999933], [36.83662260800003, -1.220773164999969], [36.83567047100007, -1.219703673999959], [36.83465687800003, -1.218426424999962], [36.834473424000066, -1.218195250999941], [36.834468842000035, -1.218189477999943], [36.83447655500004, -1.21790135599997], [36.834484100000054, -1.217619537999951], [36.83483923000006, -1.215668833999928], [36.834922791000054, -1.215209841999979], [36.83492028400008, -1.215176907999933], [36.83487476200003, -1.214579009999966], [36.83487319900007, -1.214558481999973], [36.83485357200004, -1.21449849499993], [36.83483520800007, -1.214442368999926], [36.834564209000064, -1.213614105999966], [36.83422364300003, -1.212868938999975], [36.83415412700003, -1.21271683599997], [36.834110260000045, -1.212620853999965], [36.83404045100008, -1.212489485999925], [36.83398819000007, -1.21239113799993], [36.83398724700004, -1.212389381999969], [36.83398648100007, -1.21238795599993], [36.83390492700005, -1.21223615699995], [36.833770412000035, -1.211985780999953], [36.83333728800005, -1.211179595999965], [36.83303725600007, -1.210621138999954], [36.83235464300003, -1.209350575999963], [36.831431172000066, -1.207631695999964], [36.83121575400003, -1.20723073399995], [36.831207275000054, -1.207214951999958], [36.831206673000054, -1.207213329999945], [36.83092077900005, -1.206442289999927], [36.830868149000025, -1.206300347999957], [36.83067703200004, -1.20578491699996], [36.830391150000025, -1.205118895999931], [36.83026601800003, -1.204827375999969], [36.830261230000076, -1.204816221999977], [36.83026102100007, -1.204815098999973], [36.830251118000035, -1.204761871999949], [36.83022416000006, -1.204616972999929], [36.83022328200008, -1.204612253999926], [36.83012464800004, -1.204082091999965], [36.830123901000036, -1.204078077999952], [36.830127367000046, -1.204008212999952], [36.83014003300008, -1.203752928999961], [36.83014343000008, -1.20368446599997], [36.830145980000054, -1.203633070999956], [36.83014679000007, -1.203616737999937], [36.830149420000055, -1.20361761199996], [36.83027863500007, -1.20366056599994], [36.83046779400007, -1.20372344599997], [36.83049392700008, -1.20373213299996], [36.830496383000025, -1.203733100999955], [36.830567323000025, -1.203761072999953], [36.830662034000056, -1.203798416999973], [36.831032497000024, -1.203944487999934], [36.83137130700004, -1.204078077999952], [36.83197804200006, -1.204595710999968], [36.83199310300006, -1.20460856], [36.832125964000056, -1.204722200999925], [36.83221359400005, -1.204797153999948], [36.83246898500005, -1.205015598999978], [36.832739712000034, -1.205247160999932], [36.83277511600005, -1.205277442999943], [36.83278098100004, -1.20529120499998], [36.83301719800005, -1.205845499999953], [36.83302536400004, -1.205864661999954], [36.83303070100004, -1.205877184999963], [36.83303205500005, -1.205882641999949], [36.833032382000056, -1.205883960999927], [36.83324578000003, -1.206744224999966], [36.833257624000055, -1.206791970999973], [36.833269492000056, -1.206839812999931], [36.833272298000054, -1.206851122999979], [36.833282471000075, -1.20689213299994], [36.833560944000055, -1.207445620999977], [36.83356575900007, -1.207448431999978], [36.83356579300005, -1.207448451999937], [36.83380550800007, -1.207588405999957], [36.83411407500006, -1.207768558999931], [36.83463923200003, -1.207953096999972], [36.835361481000064, -1.208206891999964], [36.83545989600003, -1.208215443999961], [36.836421967000035, -1.208299040999975], [36.836619778000056, -1.208316061999938], [36.83697016900004, -1.20834621299997], [36.83707529900005, -1.208355258999973], [36.83721743000007, -1.208367488999954], [36.83722686800007, -1.20836830099995], [36.83722863700007, -1.208367712999973], [36.83793366900005, -1.208133289999978], [36.83798980700004, -1.208114623999961], [36.838006147000044, -1.208104583999955], [36.838089256000046, -1.20805351599995], [36.83811148700005, -1.208039855999971], [36.83841211600003, -1.207855126999959], [36.83851902600003, -1.207789433999949], [36.83868458300003, -1.207687702999976], [36.838703156000065, -1.207676290999928], [36.83870551800004, -1.207672689999924], [36.838811074000034, -1.207511745999966], [36.83883619100004, -1.207473449999952], [36.838921199000026, -1.20734383599995], [36.83901971000006, -1.207193631999928], [36.839135147000036, -1.207017621999967], [36.839141846000075, -1.207007407999925], [36.839560703000075, -1.207183047999934], [36.83980886100005, -1.207287107999946], [36.84061267300007, -1.207624170999964], [36.841862511000045, -1.208148265999967], [36.84292411000007, -1.208593426999926], [36.84444038100003, -1.20922924599995], [36.845302582000045, -1.209590792999961], [36.84531838300006, -1.209597722999945], [36.84554959400003, -1.209699128999944], [36.84600865200008, -1.209900466999955], [36.847042731000045, -1.210354001999974], [36.847356981000075, -1.210491827999931], [36.847711583000034, -1.210647351999967], [36.84895312400005, -1.211191876999976], [36.84924697900004, -1.211320757999943], [36.849247225000056, -1.211319167999932], [36.84924871800007, -1.211309504999974], [36.84925134100007, -1.21129253099997], [36.84932632500005, -1.210807211999963], [36.849377652000044, -1.21047501399994], [36.84941864000007, -1.210209726999949], [36.84942373800004, -1.210211938999976], [36.849425248000045, -1.210212593999927], [36.84942687900008, -1.210213301999943], [36.84944257600006, -1.210220111999945], [36.849582672000054, -1.210280894999926], [36.85007476800007, -1.21036744099996], [36.850795746000074, -1.210280894999926], [36.85157394400005, -1.210078834999933], [36.852252960000044, -1.209847926999942], [36.85282897900004, -1.209703683999976], [36.853595734000066, -1.209573864999925], [36.854358673000036, -1.209342956999933], [36.854789734000065, -1.209054350999963], [36.85511016800007, -1.209112047999952], [36.85581588700006, -1.209213017999957], [36.856536865000066, -1.209285258999955], [36.85723114000007, -1.209241866999946], [36.85793685900006, -1.209241866999946], [36.85923767100007, -1.209328531999972], [36.860305786000026, -1.209285258999955], [36.86109924300007, -1.20877468599997], [36.861892700000055, -1.208233594999967], [36.862579346000075, -1.207620381999959], [36.86281204200003, -1.207151412999963], [36.863136292000036, -1.206628322999961], [36.86342620800008, -1.206159233999927], [36.86391449000007, -1.205978869999967], [36.86411285400004, -1.205942868999955], [36.86420059200003, -1.205636143999925], [36.864597321000076, -1.205347537999955], [36.86506652800006, -1.205185293999932], [36.86540985100004, -1.204932689999964], [36.865844727000024, -1.204680203999942], [36.86604309100005, -1.204427718999966], [36.866203308000024, -1.204012870999975], [36.86647415200008, -1.203507780999928], [36.86656570400004, -1.203219174999958], [36.86658096300005, -1.202984690999926], [36.86679840100004, -1.202858447999972], [36.867233276000036, -1.202696084999957], [36.867664337000065, -1.202678083999956], [36.86809921300005, -1.202623962999951], [36.86844253500004, -1.202425479999931], [36.86853027300003, -1.202208995999968], [36.86858367900004, -1.201866387999928], [36.86864090000006, -1.201577782999948], [36.86870956400003, -1.201180934999968], [36.86899948100006, -1.201180934999968], [36.869163513000046, -1.201072692999958], [36.86946868900003, -1.200838207999937], [36.86961364700005, -1.200639724999974], [36.87002944900007, -1.200567602999968], [36.87038803100006, -1.200567602999968], [36.87089538600003, -1.200567602999968], [36.871074677000024, -1.200567602999968], [36.87127304100005, -1.200459360999957], [36.87145233200005, -1.200297116999934], [36.87159729000007, -1.199918269999955], [36.872119904000044, -1.199737905999939], [36.87262725800008, -1.199719905999928], [36.873130798000034, -1.199936270999956], [36.87365341200007, -1.200098633999971], [36.87426757800006, -1.200026511999965], [36.87480926500007, -1.199990391999961], [36.87536621100003, -1.199918269999955], [36.875747681000064, -1.19986414899995], [36.876251221000075, -1.199846147999949], [36.87681198100006, -1.200188874999981], [36.87785720800008, -1.200802087999932], [36.87841415400004, -1.201054691999957], [36.878936768000074, -1.201144813999974], [36.879749298000036, -1.200964450999948], [36.880092621000074, -1.200639724999974], [36.88041687000003, -1.200351118999947], [36.88059616100003, -1.200188874999981], [36.880939484000066, -1.200098633999971], [36.881175995000035, -1.200026511999965], [36.88146209700005, -1.199828028999946], [36.881591797000056, -1.19964766499993], [36.88182449300007, -1.199521421999975], [36.88202285800003, -1.199521421999975], [36.88214874300007, -1.199413179999965], [36.88224029500003, -1.199160694999932], [36.88256454500004, -1.199142693999932], [36.882961273000035, -1.199106573999927], [36.883232117000034, -1.198962330999962], [36.883647919000055, -1.198872088999963], [36.88407897900004, -1.198691725999936], [36.88413238500004, -1.198475241999972], [36.88451385500008, -1.198475241999972], [36.88510894800004, -1.198547362999932], [36.88584518400006, -1.198799967999946], [36.88624191300005, -1.198998331999974], [36.88676834100005, -1.199196814999937], [36.88719940200008, -1.199286937999943], [36.887832642000035, -1.199629663999929], [36.88838958700006, -1.199972271999968], [36.889690399000074, -1.200639724999974], [36.88999557500006, -1.200766086999977], [36.89008712800006, -1.200946449999947], [36.89031982400007, -1.201000570999952]]]}, "type": "Feature", "id": 0, "properties": {"CONST_CODE": 279, "Shape_Area": 0.00182362536, "OBJECTID_1": 1292, "OBJECTID": 6025, "CONSTITUEN": "ROYSAMBU", "COUNTY_ASS": 1394, "COUNTY_A_1": "ROYSAMBU", "COUNTY_COD": 47, "Shape_Leng": 0.21537827508, "COUNTY_NAM": "NAIROBI", "Shape_Le_1": 0.2153782751}}]}